NORAD_CAT_ID,OBJECT_NAME,OBJECT_TYPE,EPOCH,MEAN_MOTION,ECCENTRICITY,INCLINATION,RA_OF_ASC_NODE,ARG_OF_PERICENTER,MEAN_ANOMALY,BSTAR,MEAN_MOTION_DOT,MEAN_MOTION_DDOT,TLE_LINE0,TLE_LINE1,TLE_LINE2,SEMIMAJOR_AXIS,PERIOD,APOGEE,PERIGEE,DECAYED
53029.0,STARLINK-4143,PAYLOAD,2023-07-06 06:14:32,15.08834152,0.0001107,53.2164,141.972,84.4158,275.696,5.0268e-05,5.12e-06,0.0,0 STARLINK-4143,1 53029U 22076AV  23187.26009299  .00000512  00000-0  50268-4 0  9997,2 53029  53.2164 141.9720 0001107  84.4158 275.6960 15.08834152 56031,6917.898,95.438,540.529,538.997,0.0
53029.0,STARLINK-4143,PAYLOAD,2023-07-07 06:05:18,15.08843432,0.0001219,53.2163,137.5111,83.5633,276.5498,2.3079e-05,7.9e-07,0.0,0 STARLINK-4143,1 53029U 22076AV  23188.25368924  .00000079  00000-0  23079-4 0  9998,2 53029  53.2163 137.5111 0001219  83.5633 276.5498 15.08843432 56180,6917.87,95.437,540.578,538.892,0.0
53029.0,STARLINK-4143,PAYLOAD,2023-07-08 13:53:01,15.08840151,0.0001312,53.2167,131.5642,89.9464,270.1679,4.4688e-05,4.23e-06,0.0,0 STARLINK-4143,1 53029U 22076AV  23189.57848948  .00000423  00000-0  44688-4 0  9995,2 53029  53.2167 131.5642 0001312  89.9464 270.1679 15.08840151 56381,6917.88,95.438,540.653,538.837,0.0
53029.0,STARLINK-4143,PAYLOAD,2023-07-09 02:36:07,15.08832619,0.0001389,53.2171,129.1826,104.7828,255.3318,-1.801e-05,-5.74e-06,0.0,0 STARLINK-4143,1 53029U 22076AV  23190.10841609 -.00000574  00000-0 -18010-4 0  9992,2 53029  53.2171 129.1826 0001389 104.7828 255.3318 15.08832619 56461,6917.903,95.438,540.729,538.807,0.0
53029.0,STARLINK-4143,PAYLOAD,2023-07-10 04:02:17,15.08842105,0.0001169,53.2167,124.4286,95.056,265.0565,-2.8208e-05,-7.37e-06,0.0,0 STARLINK-4143,1 53029U 22076AV  23191.16825346 -.00000737  00000-0 -28208-4 0  9990,2 53029  53.2167 124.4286 0001169  95.0560 265.0565 15.08842105 56626,6917.874,95.437,540.548,538.93,0.0
53029.0,STARLINK-4143,PAYLOAD,2023-07-11 02:17:41,15.08827322,0.0001094,53.2166,120.2645,96.8324,263.2792,0.00015618,2.198e-05,0.0,0 STARLINK-4143,1 53029U 22076AV  23192.09561910  .00002198  00000-0  15618-3 0  9998,2 53029  53.2166 120.2645 0001094  96.8324 263.2792 15.08827322 56763,6917.919,95.438,540.541,539.027,0.0
53029.0,STARLINK-4143,PAYLOAD,2023-07-12 03:43:51,15.08843554,0.0001037,53.2171,115.5086,94.3873,265.7238,6.3322e-05,7.2e-06,0.0,0 STARLINK-4143,1 53029U 22076AV  23193.15545451  .00000720  00000-0  63322-4 0  9993,2 53029  53.2171 115.5086 0001037  94.3873 265.7238 15.08843554 56929,6917.87,95.437,540.452,539.017,0.0
53029.0,STARLINK-4143,PAYLOAD,2023-07-13 17:53:07,15.08835903,0.000117,53.2172,108.3719,90.9851,269.1275,2.9335e-05,1.79e-06,0.0,0 STARLINK-4143,1 53029U 22076AV  23194.74522214  .00000179  00000-0  29335-4 0  9995,2 53029  53.2172 108.3719 0001170  90.9851 269.1275 15.08835903 57164,6917.893,95.438,540.567,538.949,0.0
53029.0,STARLINK-4143,PAYLOAD,2023-07-15 00:05:26,15.08830353,9.05e-05,53.216,102.7192,95.9873,264.1222,0.00031446,4.719e-05,0.0,0 STARLINK-4143,1 53029U 22076AV  23196.00377855  .00004719  00000-0  31446-3 0  9994,2 53029  53.2160 102.7192 0000905  95.9873 264.1222 15.08830353 57350,6917.91,95.438,540.401,539.149,0.0
53029.0,STARLINK-4143,PAYLOAD,2023-07-15 03:16:11,15.08853466,9.64e-05,53.2161,102.1239,93.5969,266.5133,0.00011063,1.474e-05,0.0,0 STARLINK-4143,1 53029U 22076AV  23196.13624800  .00001474  00000-0  11063-3 0  9991,2 53029  53.2161 102.1239 0000964  93.5969 266.5133 15.08853466 57371,6917.839,95.437,540.371,539.037,0.0
53029.0,STARLINK-4143,PAYLOAD,2023-07-15 17:34:41,15.08838515,9.32e-05,53.2169,99.4473,104.7732,255.3364,1.5358e-05,-4.3e-07,0.0,0 STARLINK-4143,1 53029U 22076AV  23196.73241987 -.00000043  00000-0  15358-4 0  9992,2 53029  53.2169  99.4473 0000932 104.7732 255.3364 15.08838515 57465,6917.885,95.438,540.395,539.105,0.0
53029.0,STARLINK-4143,PAYLOAD,2023-07-16 23:47:01,15.08840876,0.0001152,53.2171,93.799,92.7211,267.3914,-0.00012344,-2.252e-05,0.0,0 STARLINK-4143,1 53029U 22076AV  23197.99098473 -.00002252  00000-0 -12344-3 0  9997,2 53029  53.2171  93.7990 0001152  92.7211 267.3914 15.08840876 57650,6917.878,95.437,540.54,538.946,0.0
53029.0,STARLINK-4143,PAYLOAD,2023-07-18 02:48:32,15.08853388,0.0001201,53.2181,88.743,100.7623,259.3504,0.00016772,2.383e-05,0.0,0 STARLINK-4143,1 53029U 22076AV  23199.11704786  .00002383  00000-0  16772-3 0  9996,2 53029  53.2181  88.7430 0001201 100.7623 259.3504 15.08853388 57823,6917.839,95.437,540.535,538.874,0.0
53029.0,STARLINK-4143,PAYLOAD,2023-07-18 17:07:02,15.08832186,0.0001428,53.2166,86.0653,118.5044,241.6092,7.7243e-05,9.41e-06,0.0,0 STARLINK-4143,1 53029U 22076AV  23199.71322432  .00000941  00000-0  77243-4 0  9995,2 53029  53.2166  86.0653 0001428 118.5044 241.6092 15.08832186 57918,6917.904,95.438,540.757,538.781,0.0
53029.0,STARLINK-4143,PAYLOAD,2023-07-19 01:03:58,15.0883962,0.00011,53.2171,84.5807,105.3262,254.7852,8.2995e-05,1.033e-05,0.0,0 STARLINK-4143,1 53029U 22076AV  23200.04442176  .00001033  00000-0  82995-4 0  9995,2 53029  53.2171  84.5807 0001100 105.3262 254.7852 15.08839620 57965,6917.882,95.438,540.508,538.986,0.0
53029.0,STARLINK-4143,PAYLOAD,2023-07-20 02:30:08,15.08845494,8.6e-05,53.2168,79.8236,104.7524,255.3564,-4.5386e-05,-1.01e-05,0.0,0 STARLINK-4143,1 53029U 22076AV  23201.10426426 -.00001010  00000-0 -45386-4 0  9993,2 53029  53.2168  79.8236 0000860 104.7524 255.3564 15.08845494 58122,6917.864,95.437,540.324,539.134,0.0
53029.0,STARLINK-4143,PAYLOAD,2023-07-21 00:45:32,15.08838506,8.41e-05,53.2167,75.6604,108.9175,251.1908,0.00014247,1.98e-05,0.0,0 STARLINK-4143,1 53029U 22076AV  23202.03162632  .00001980  00000-0  14247-3 0  9997,2 53029  53.2167  75.6604 0000841 108.9175 251.1908 15.08838506 58268,6917.885,95.438,540.332,539.168,0.0
53029.0,STARLINK-4143,PAYLOAD,2023-07-24 14:36:21,15.08849335,0.000155,53.2167,59.6009,99.2063,260.9105,0.00010883,1.445e-05,0.0,0 STARLINK-4143,1 53029U 22076AV  23205.60858174  .00001445  00000-0  10883-3 0  9994,2 53029  53.2167  59.6009 0001550  99.2063 260.9105 15.08849335 58332,6917.852,95.437,540.789,538.645,0.0
53029.0,STARLINK-4143,PAYLOAD,2023-07-25 00:08:39,15.08854424,0.0001783,53.2154,57.8155,104.8956,255.2234,0.00015368,2.16e-05,0.0,0 STARLINK-4143,1 53029U 22076AV  23206.00601591  .00002160  00000-0  15368-3 0  9996,2 53029  53.2154  57.8155 0001783 104.8956 255.2234 15.08854424 58393,6917.836,95.437,540.935,538.468,0.0
53029.0,STARLINK-4143,PAYLOAD,2023-07-25 23:59:27,15.08837099,0.0001265,53.2164,53.3568,88.1449,271.9688,-0.00016842,-2.967e-05,0.0,0 STARLINK-4143,1 53029U 22076AV  23206.99962251 -.00002967  00000-0 -16842-3 0  9992,2 53029  53.2164  53.3568 0001265  88.1449 271.9688 15.08837099 58543,6917.889,95.438,540.629,538.879,0.0
53029.0,STARLINK-4143,PAYLOAD,2023-07-26 20:39:27,15.0885193,9.78e-05,53.2162,49.4914,78.4731,281.6371,-0.00045635,-7.545e-05,0.0,0 STARLINK-4143,1 53029U 22076AV  23207.86073697 -.00007545  00000-0 -45635-3 0  9995,2 53029  53.2162  49.4914 0000978  78.4731 281.6371 15.08851930 58679,6917.844,95.437,540.385,539.032,0.0
53029.0,STARLINK-4143,PAYLOAD,2023-07-26 23:50:14,15.08848625,0.0001154,53.2169,48.8959,86.3935,273.7189,-4.8023e-06,-3.64e-06,0.0,0 STARLINK-4143,1 53029U 22076AV  23207.99322170 -.00000364  00000-0 -48023-5 0  9990,2 53029  53.2169  48.8959 0001154  86.3935 273.7189 15.08848625 59160,6917.854,95.437,540.517,538.921,0.0
53029.0,STARLINK-4143,PAYLOAD,2023-07-27 06:11:47,15.08832337,0.0001211,53.2166,47.7052,73.0527,287.0598,0.00018641,2.679e-05,0.0,0 STARLINK-4143,1 53029U 22076AV  23208.25819214  .00002679  00000-0  18641-3 0  9990,2 53029  53.2166  47.7052 0001211  73.0527 287.0598 15.08832337 59203,6917.904,95.438,540.607,538.931,0.0
53029.0,STARLINK-4143,PAYLOAD,2023-07-27 14:08:43,15.08829031,0.000156,53.2169,46.2196,85.7303,274.3868,6.3062e-05,7.15e-06,0.0,0 STARLINK-4143,1 53029U 22076AV  23208.58939703  .00000715  00000-0  63062-4 0  9999,2 53029  53.2169  46.2196 0001560  85.7303 274.3868 15.08829031 58786,6917.914,95.438,540.858,538.7,0.0
53029.0,STARLINK-4143,PAYLOAD,2023-07-27 23:41:02,15.08829092,0.0001423,53.2165,44.4358,89.6987,270.4169,4.245e-05,3.88e-06,0.0,0 STARLINK-4143,1 53029U 22076AV  23208.98683921  .00000388  00000-0  42450-4 0  9995,2 53029  53.2165  44.4358 0001423  89.6987 270.4169 15.08829092 59319,6917.914,95.438,540.763,538.794,0.0
53029.0,STARLINK-4143,PAYLOAD,2023-07-28 13:59:31,15.08838178,0.0001298,53.2168,41.7601,97.4505,262.6635,0.0001621,2.293e-05,0.0,0 STARLINK-4143,1 53029U 22076AV  23209.58299779  .00002293  00000-0  16210-3 0  9997,2 53029  53.2168  41.7601 0001298  97.4505 262.6635 15.08838178 58939,6917.886,95.438,540.649,538.853,0.0
53029.0,STARLINK-4143,PAYLOAD,2023-07-29 18:36:27,15.08851948,0.000106,53.2153,36.4071,95.2428,264.8685,0.00040093,6.101e-05,0.0,0 STARLINK-4143,1 53029U 22076AV  23210.77531400  .00006101  00000-0  40093-3 0  9998,2 53029  53.2153  36.4071 0001060  95.2428 264.8685 15.08851948 59583,6917.844,95.437,540.442,538.976,0.0
53029.0,STARLINK-4143,PAYLOAD,2023-07-30 18:27:14,15.08843296,0.0001204,53.2174,31.9476,85.6136,274.4994,0.00013455,1.854e-05,0.0,0 STARLINK-4143,1 53029U 22076AV  23211.76891662  .00001854  00000-0  13455-3 0  9999,2 53029  53.2174  31.9476 0001204  85.6136 274.4994 15.08843296 59738,6917.87,95.437,540.568,538.902,0.0
53029.0,STARLINK-4143,PAYLOAD,2023-08-01 18:08:48,15.08847545,0.0001221,53.2172,23.0246,89.735,270.3782,0.0001955,2.826e-05,0.0,0 STARLINK-4143,1 53029U 22076AV  23213.75611482  .00002826  00000-0  19550-3 0  9992,2 53029  53.2172  23.0246 0001221  89.7350 270.3782 15.08847545 60031,6917.857,95.437,540.567,538.878,0.0
53029.0,STARLINK-4143,PAYLOAD,2023-08-02 17:59:35,15.08845613,0.0001079,53.217,18.5653,86.4928,273.6188,0.00013452,1.854e-05,0.0,0 STARLINK-4143,1 53029U 22076AV  23214.74971492  .00001854  00000-0  13452-3 0  9997,2 53029  53.2170  18.5653 0001079  86.4928 273.6188 15.08845613 60182,6917.863,95.437,540.475,538.982,0.0
